[{"OBJECT_NAME":"ONEWEB-0027","OBJECT_ID":"2020-020J","EPOCH":"2026-03-09T21:43:50.204352","MEAN_MOTION":13.17647701,"ECCENTRICITY":0.00022279,"INCLINATION":87.9161,"RA_OF_ASC_NODE":25.5568,"ARG_OF_PERICENTER":78.8398,"MEAN_ANOMALY":281.2984,"EPHEMERIS_TYPE":0,"CLASSIFICATION_TYPE":"U","NORAD_CAT_ID":45432,"ELEMENT_SET_NO":999,"REV_AT_EPOCH":29328,"BSTAR":6.1141197e-5,"MEAN_MOTION_DOT":3.7e-7,"MEAN_MOTION_DDOT":0},{"OBJECT_NAME":"THORAD AGENA D DEB","OBJECT_ID":"1970-025DS","EPOCH":"2026-03-09T10:26:26.274048","MEAN_MOTION":13.26883764,"ECCENTRICITY":0.01838948,"INCLINATION":99.7479,"RA_OF_ASC_NODE":230.1145,"ARG_OF_PERICENTER":166.8853,"MEAN_ANOMALY":252.4923,"EPHEMERIS_TYPE":0,"CLASSIFICATION_TYPE":"U","NORAD_CAT_ID":4772,"ELEMENT_SET_NO":999,"REV_AT_EPOCH":68894,"BSTAR":0.0015860797,"MEAN_MOTION_DOT":7.34e-6,"MEAN_MOTION_DDOT":0}]
